{
  "type": "FeatureCollection",
  "name": "Erken processing ROI 5 km",
  "features": [
    {
      "type": "Feature",
      "id": "erken-processing-roi-5km",
      "properties": {
        "name": "Erken downstream processing ROI",
        "role": "processing-roi",
        "buffer_km": 5,
        "source": "OpenStreetMap relation 2672093 (© OpenStreetMap contributors, ODbL)",
        "buffer_crs": "EPSG:32634"
      },
      "geometry": {
        "type": "Polygon",
        "coordinates": [[
          [18.380777, 59.846266],
          [18.387707, 59.862617],
          [18.403175, 59.880870],
          [18.416679, 59.890127],
          [18.441885, 59.899805],
          [18.467983, 59.905036],
          [18.485461, 59.906862],
          [18.501492, 59.907034],
          [18.529484, 59.903615],
          [18.565793, 59.905823],
          [18.599236, 59.903018],
          [18.632592, 59.905436],
          [18.671397, 59.901437],
          [18.686010, 59.897767],
          [18.707896, 59.888108],
          [18.728671, 59.872008],
          [18.744331, 59.853465],
          [18.748406, 59.838674],
          [18.742062, 59.822804],
          [18.734747, 59.815559],
          [18.705921, 59.799524],
          [18.682812, 59.793321],
          [18.634187, 59.785320],
          [18.573640, 59.782354],
          [18.551402, 59.784711],
          [18.527097, 59.789972],
          [18.499603, 59.790005],
          [18.482666, 59.792323],
          [18.419056, 59.807599],
          [18.396026, 59.819527],
          [18.387032, 59.828094],
          [18.382031, 59.837016],
          [18.380777, 59.846266]
        ]]
      }
    }
  ]
}
